STP-S29A OBJECT D       
1 68630U 26074D   26097.85121279  .00002133  00000+0  98955-4 0  9999
2 68630  60.0175  87.9509 0010752 306.1889  53.8196 15.23975335    52
