{
  "norad_id": 68630,
  "name": "STP-S29A OBJECT D",
  "history": [
    {
      "epoch": "2026-04-07T20:25:44.785056Z",
      "apogee_km": 501.2528049880402,
      "perigee_km": 486.47525397424397,
      "latitude_deg": -2.184421568945061e-05,
      "longitude_deg": -54.6078990701855,
      "height_km": 491.1073489078142,
      "semi_major_axis_km": 6872.001029481142,
      "eccentricity": 0.0010752,
      "inclination_deg": 60.0175,
      "raan_deg": 87.9509,
      "arg_perigee_deg": 306.1889,
      "mean_anomaly_deg": 53.8196,
      "mean_motion_rev_day": 15.23975335
    }
  ]
}